{"type":"FeatureCollection","features":[{"type":"Feature","geometry":{"type":"Polygon","coordinates":[[[-50.3402,-22.9481],[-50.3592,-22.9161],[-50.4164,-22.9128],[-50.4257,-22.9442],[-50.5268,-22.9348],[-50.53,-22.9191],[-50.5772,-22.904],[-50.6038,-22.9232],[-50.6373,-22.9069],[-50.6821,-22.9062],[-50.7098,-22.9534],[-50.7959,-22.9512],[-50.7931,-22.9051],[-50.8236,-22.8661],[-50.8424,-22.8314],[-50.8953,-22.7943],[-50.9277,-22.7977],[-50.9787,-22.7826],[-51.0044,-22.7937],[-50.9368,-22.8741],[-50.9333,-22.9089],[-50.9795,-22.9371],[-50.9784,-22.9633],[-50.9464,-22.9819],[-50.9413,-23.0314],[-50.9887,-23.0476],[-50.9772,-23.0948],[-50.9484,-23.1064],[-50.9596,-23.1479],[-50.9508,-23.1724],[-50.969,-23.1968],[-50.967,-23.2373],[-50.9882,-23.254],[-50.9634,-23.3034],[-50.9932,-23.319],[-50.981,-23.3426],[-50.9957,-23.3949],[-50.9535,-23.4162],[-50.9484,-23.5197],[-50.9304,-23.5653],[-50.9334,-23.6078],[-50.9203,-23.6646],[-50.8763,-23.6945],[-50.9154,-23.7144],[-50.8941,-23.7437],[-50.8756,-23.767],[-50.8991,-23.7956],[-50.8958,-23.8402],[-50.8574,-23.8684],[-50.8437,-23.8944],[-50.8049,-23.8764],[-50.7871,-23.9056],[-50.732,-23.9477],[-50.7545,-23.9773],[-50.7218,-24.0279],[-50.7028,-24.0249],[-50.6929,-24.0366],[-50.6606,-24.0719],[-50.5395,-24.0683],[-50.4819,-24.1037],[-50.3835,-24.1045],[-50.3306,-24.1226],[-50.3444,-24.0668],[-50.3363,-24.025],[-50.31,-24.022],[-50.289,-23.9882],[-50.2903,-23.959],[-50.2325,-23.9713],[-50.2208,-23.9975],[-50.1617,-23.9421],[-50.1183,-23.9621],[-50.0815,-23.9611],[-50.0421,-23.9897],[-49.9934,-23.9762],[-49.9704,-23.9564],[-49.9731,-23.9021],[-49.9648,-23.8697],[-49.9235,-23.8438],[-49.8303,-23.9363],[-49.8293,-23.9789],[-49.793,-24.0038],[-49.7553,-24.0656],[-49.7594,-24.0841],[-49.6975,-24.0654],[-49.6804,-24.0782],[-49.6344,-24.0707],[-49.6238,-24.0019],[-49.5358,-23.9282],[-49.587,-23.8889],[-49.608,-23.8394],[-49.5727,-23.827],[-49.5597,-23.7936],[-49.5673,-23.7368],[-49.5492,-23.704],[-49.5747,-23.676],[-49.6021,-23.6521],[-49.621,-23.6111],[-49.6028,-23.584],[-49.6002,-23.5356],[-49.6242,-23.5233],[-49.6214,-23.4933],[-49.5981,-23.4582],[-49.5818,-23.429],[-49.6025,-23.4085],[-49.5954,-23.3671],[-49.6379,-23.3495],[-49.6217,-23.3319],[-49.6271,-23.2818],[-49.6538,-23.212],[-49.6777,-23.1749],[-49.7165,-23.1484],[-49.7256,-23.1094],[-49.7892,-23.1033],[-49.8095,-23.0892],[-49.8194,-23.077],[-49.8337,-23.0659],[-49.8674,-23.0717],[-49.9116,-23.0511],[-49.9017,-22.9993],[-49.9545,-22.9784],[-49.9725,-22.9585],[-49.9742,-22.9545],[-49.9614,-22.9309],[-49.9862,-22.8975],[-50.0146,-22.9113],[-50.0528,-22.9055],[-50.1331,-22.9399],[-50.2039,-22.9528],[-50.2432,-22.951],[-50.2756,-22.9316],[-50.3402,-22.9481]]]},"properties":{"codarea":"4104"}},{"type":"Feature","geometry":{"type":"Polygon","coordinates":[[[-49.1298,-24.6819],[-49.1579,-24.6719],[-49.1857,-24.6728],[-49.2079,-24.7009],[-49.2781,-24.693],[-49.312,-24.6635],[-49.3036,-24.5969],[-49.316,-24.5555],[-49.2799,-24.5359],[-49.2957,-24.5003],[-49.2453,-24.4651],[-49.2505,-24.4454],[-49.2524,-24.4339],[-49.2757,-24.4169],[-49.3468,-24.4585],[-49.3592,-24.4777],[-49.4912,-24.5518],[-49.5107,-24.6142],[-49.5392,-24.572],[-49.5736,-24.6137],[-49.5917,-24.6363],[-49.6415,-24.642],[-49.6204,-24.6827],[-49.5735,-24.668],[-49.5298,-24.7156],[-49.5674,-24.7955],[-49.5389,-24.8188],[-49.5284,-24.8621],[-49.4988,-24.9053],[-49.5395,-24.9165],[-49.5749,-24.9594],[-49.6042,-24.9865],[-49.6402,-25.0075],[-49.6657,-25.0006],[-49.7049,-25.0291],[-49.7428,-25.0792],[-49.7316,-25.1272],[-49.6827,-25.1653],[-49.6929,-25.1945],[-49.7308,-25.2244],[-49.773,-25.1954],[-49.8159,-25.2253],[-49.8492,-25.2339],[-49.8197,-25.2701],[-49.7566,-25.3606],[-49.7412,-25.4084],[-49.7672,-25.4667],[-49.8465,-25.4761],[-49.8607,-25.4966],[-49.9101,-25.4489],[-49.9327,-25.5035],[-49.9613,-25.5073],[-49.99,-25.5624],[-49.986,-25.5997],[-50.0268,-25.6043],[-50.0653,-25.651],[-50.0952,-25.6354],[-50.1307,-25.6604],[-50.1356,-25.6956],[-50.1632,-25.7593],[-50.1898,-25.7647],[-50.2282,-25.8128],[-50.2102,-25.8163],[-50.1434,-25.8875],[-50.0832,-25.8994],[-50.0401,-25.879],[-50.0131,-25.8947],[-50.0112,-25.931],[-49.9733,-25.9591],[-49.9678,-26.0051],[-49.9934,-26.0114],[-49.9341,-26.0189],[-49.8694,-26.0335],[-49.8638,-26.0547],[-49.8242,-26.0939],[-49.7486,-26.1246],[-49.6728,-26.1898],[-49.654,-26.1869],[-49.6031,-26.2267],[-49.5498,-26.2334],[-49.5017,-26.2199],[-49.4872,-26.1942],[-49.486,-26.1852],[-49.4292,-26.17],[-49.3807,-26.1567],[-49.3608,-26.1374],[-49.3217,-26.11],[-49.3002,-26.1113],[-49.2345,-26.0307],[-49.1675,-26.0007],[-49.0738,-26.0011],[-49.043,-26.0045],[-49.0295,-26.0046],[-49.0202,-26.0157],[-48.9683,-25.9867],[-48.9504,-25.99],[-48.9605,-25.9808],[-48.6821,-25.9837],[-48.5953,-25.9768],[-48.5496,-25.8523],[-48.4771,-25.7137],[-48.4362,-25.6494],[-48.4042,-25.614],[-48.3583,-25.5859],[-48.3199,-25.5866],[-48.2769,-25.5141],[-48.3097,-25.4933],[-48.2393,-25.4653],[-48.214,-25.473],[-48.1921,-25.4176],[-48.1623,-25.375],[-48.0961,-25.3089],[-48.0968,-25.2972],[-48.0235,-25.2309],[-48.113,-25.2509],[-48.1825,-25.205],[-48.1585,-25.1499],[-48.1816,-25.1338],[-48.2161,-25.0767],[-48.2086,-25.0319],[-48.2397,-24.9914],[-48.2696,-24.9975],[-48.2846,-25.0392],[-48.3512,-25.0365],[-48.3799,-24.9959],[-48.4119,-24.9804],[-48.474,-25.0126],[-48.4809,-25.037],[-48.5302,-25.1008],[-48.5563,-25.0843],[-48.5796,-25.0531],[-48.5981,-25.0033],[-48.5674,-24.9723],[-48.5664,-24.9168],[-48.5497,-24.8675],[-48.5677,-24.8488],[-48.5558,-24.8062],[-48.5183,-24.781],[-48.5019,-24.746],[-48.5381,-24.7262],[-48.5722,-24.6906],[-48.6166,-24.6687],[-48.675,-24.7018],[-48.7038,-24.6804],[-48.7771,-24.6957],[-48.8108,-24.675],[-48.8404,-24.665],[-48.9123,-24.674],[-48.9622,-24.6742],[-49.0103,-24.6544],[-49.1116,-24.6884],[-49.1298,-24.6819]]]},"properties":{"codarea":"4110"}},{"type":"Feature","geometry":{"type":"Polygon","coordinates":[[[-52.7471,-24.8753],[-52.7028,-24.8773],[-52.662,-24.8942],[-52.6558,-24.9294],[-52.6017,-24.8786],[-52.5372,-24.8401],[-52.5409,-24.7698],[-52.4896,-24.7398],[-52.4531,-24.7463],[-52.4252,-24.7127],[-52.3941,-24.7166],[-52.3706,-24.6955],[-52.3259,-24.6807],[-52.2732,-24.643],[-52.2074,-24.6177],[-52.1341,-24.6253],[-52.0946,-24.5968],[-52.0475,-24.5667],[-52.0447,-24.5338],[-52.0166,-24.4718],[-52.034,-24.4141],[-52.0221,-24.4119],[-52.0065,-24.3442],[-51.9885,-24.3207],[-51.9974,-24.2861],[-51.9538,-24.2468],[-51.9581,-24.2409],[-51.9927,-24.2027],[-51.9408,-24.1558],[-51.9178,-24.1038],[-51.9463,-24.0418],[-51.9461,-23.9742],[-51.968,-23.9493],[-51.9395,-23.9082],[-51.9587,-23.8573],[-52.0051,-23.8226],[-51.9963,-23.7906],[-52.0438,-23.811],[-52.0339,-23.7724],[-52.0611,-23.731],[-52.1115,-23.7055],[-52.1161,-23.6728],[-52.1571,-23.6813],[-52.1634,-23.6478],[-52.1908,-23.6446],[-52.2423,-23.6347],[-52.2641,-23.6428],[-52.2698,-23.6253],[-52.2942,-23.6185],[-52.3048,-23.573],[-52.3247,-23.554],[-52.3278,-23.5525],[-52.5188,-23.7762],[-52.5449,-23.7471],[-52.5704,-23.8106],[-52.562,-23.8406],[-52.6197,-23.9534],[-52.7056,-23.9278],[-52.6954,-23.9512],[-52.7386,-23.9945],[-52.7522,-24.0242],[-52.7667,-24.0291],[-52.7821,-24.0115],[-52.8725,-23.9923],[-52.9231,-23.988],[-52.9638,-23.9649],[-53.0516,-23.9374],[-53.1072,-23.9286],[-53.1316,-24.1029],[-53.138,-24.153],[-53.2036,-24.1365],[-53.2402,-24.1664],[-53.2645,-24.2181],[-53.2574,-24.2325],[-53.2784,-24.2536],[-53.2897,-24.3063],[-53.2748,-24.3377],[-53.2472,-24.329],[-53.1671,-24.3639],[-53.1593,-24.3947],[-53.152,-24.4173],[-53.1635,-24.4904],[-53.1792,-24.5206],[-53.1364,-24.5374],[-53.1071,-24.5696],[-53.0854,-24.6111],[-53.0438,-24.6103],[-53.0444,-24.6504],[-53.0248,-24.667],[-52.979,-24.6699],[-52.9635,-24.7048],[-52.9134,-24.7166],[-52.9197,-24.7621],[-52.8601,-24.7586],[-52.8505,-24.7926],[-52.7684,-24.8648],[-52.7471,-24.8753]]]},"properties":{"codarea":"4102"}},{"type":"Feature","geometry":{"type":"MultiPolygon","coordinates":[[[[-53.9662,-24.0024],[-53.9681,-24.0236],[-53.9896,-24.0654],[-53.9886,-24.1267],[-53.9586,-24.1204],[-53.9104,-24.1382],[-53.9015,-24.1786],[-53.8592,-24.1912],[-53.8355,-24.1679],[-53.7657,-24.1599],[-53.709,-24.1791],[-53.6924,-24.2023],[-53.6666,-24.2088],[-53.6419,-24.2394],[-53.5918,-24.2415],[-53.5556,-24.2585],[-53.4811,-24.2181],[-53.4681,-24.2212],[-53.4368,-24.2381],[-53.3621,-24.2517],[-53.3208,-24.1984],[-53.2402,-24.1664],[-53.2036,-24.1365],[-53.138,-24.153],[-53.1316,-24.1029],[-53.1072,-23.9286],[-53.0516,-23.9374],[-52.9638,-23.9649],[-52.9231,-23.988],[-52.8725,-23.9923],[-52.7821,-24.0115],[-52.7667,-24.0291],[-52.7522,-24.0242],[-52.7386,-23.9945],[-52.6954,-23.9512],[-52.7056,-23.9278],[-52.6197,-23.9534],[-52.562,-23.8406],[-52.5704,-23.8106],[-52.5449,-23.7471],[-52.5188,-23.7762],[-52.3278,-23.5525],[-52.3626,-23.5575],[-52.4022,-23.5357],[-52.422,-23.4697],[-52.4212,-23.4133],[-52.4212,-23.2661],[-52.4208,-23.2508],[-52.4205,-23.2341],[-52.3828,-23.1993],[-52.3041,-23.1915],[-52.2554,-23.1679],[-52.233,-23.1395],[-52.2518,-23.0619],[-52.2478,-23.0263],[-52.1824,-23.0425],[-52.1629,-23.0664],[-52.0568,-23.0217],[-52.0369,-23.0221],[-52.0237,-23.0022],[-52.0425,-22.9493],[-52.0585,-22.9538],[-52.0752,-22.9176],[-52.0662,-22.8769],[-52.0777,-22.8667],[-52.0692,-22.8097],[-52.0886,-22.7697],[-52.0538,-22.7535],[-52.056,-22.7293],[-52.0579,-22.695],[-52.0334,-22.6773],[-52.0106,-22.6488],[-52.004,-22.6151],[-52.0037,-22.5812],[-52.0284,-22.5395],[-52.0329,-22.5392],[-52.1092,-22.5163],[-52.1356,-22.5269],[-52.1523,-22.5692],[-52.1567,-22.6447],[-52.1828,-22.6554],[-52.2226,-22.6755],[-52.2281,-22.6425],[-52.2504,-22.6154],[-52.29,-22.6282],[-52.3004,-22.6354],[-52.3805,-22.6265],[-52.4214,-22.6106],[-52.4457,-22.6083],[-52.4988,-22.6342],[-52.5378,-22.616],[-52.5893,-22.5661],[-52.6971,-22.627],[-52.7643,-22.6086],[-52.7829,-22.6021],[-52.8154,-22.597],[-52.8584,-22.608],[-52.9247,-22.5656],[-52.9724,-22.5705],[-53.0117,-22.5988],[-53.0385,-22.6184],[-53.0915,-22.6448],[-53.1052,-22.6219],[-53.1279,-22.6523],[-53.1854,-22.7187],[-53.24,-22.7335],[-53.3274,-22.7646],[-53.3798,-22.8044],[-53.4104,-22.8139],[-53.4848,-22.8639],[-53.5468,-22.8901],[-53.5708,-22.9285],[-53.6074,-22.9513],[-53.634,-23.0034],[-53.6366,-23.125],[-53.6993,-23.2349],[-53.7149,-23.2834],[-53.7622,-23.3593],[-53.9321,-23.4459],[-53.9602,-23.4434],[-53.9874,-23.4666],[-54.0306,-23.6282],[-54.0511,-23.6872],[-54.0519,-23.7211],[-54.0757,-23.7645],[-54.0836,-23.8055],[-54.084,-23.865],[-54.0805,-23.8913],[-54.1018,-23.952],[-54.1403,-23.9884],[-54.169,-23.999],[-54.0985,-24.025],[-54.0558,-24.0365],[-54.0172,-24.0153],[-53.9984,-23.9857],[-53.9662,-24.0024]]],[[[-53.3778,-23.2407],[-53.3781,-23.2409],[-53.3763,-23.2398],[-53.3778,-23.2407]]]]},"properties":{"codarea":"4101"}},{"type":"Feature","geometry":{"type":"Polygon","coordinates":[[[-51.3331,-22.6671],[-51.3736,-22.6581],[-51.402,-22.6679],[-51.4464,-22.653],[-51.475,-22.6792],[-51.5172,-22.69],[-51.5596,-22.6972],[-51.6279,-22.6582],[-51.6305,-22.6579],[-51.7182,-22.669],[-51.733,-22.6286],[-51.7716,-22.6141],[-51.8558,-22.6317],[-51.8902,-22.6132],[-51.9015,-22.6019],[-51.9405,-22.5673],[-52.0284,-22.5395],[-52.0037,-22.5812],[-52.004,-22.6151],[-52.0106,-22.6488],[-52.0334,-22.6773],[-52.0579,-22.695],[-52.056,-22.7293],[-52.0538,-22.7535],[-52.0886,-22.7697],[-52.0692,-22.8097],[-52.0777,-22.8667],[-52.0662,-22.8769],[-52.0752,-22.9176],[-52.0585,-22.9538],[-52.0425,-22.9493],[-52.0237,-23.0022],[-52.0369,-23.0221],[-52.0568,-23.0217],[-52.1629,-23.0664],[-52.1824,-23.0425],[-52.2478,-23.0263],[-52.2518,-23.0619],[-52.233,-23.1395],[-52.2554,-23.1679],[-52.3041,-23.1915],[-52.3828,-23.1993],[-52.4205,-23.2341],[-52.4208,-23.2508],[-52.4212,-23.2661],[-52.4212,-23.4133],[-52.422,-23.4697],[-52.4022,-23.5357],[-52.3626,-23.5575],[-52.3278,-23.5525],[-52.3247,-23.554],[-52.3048,-23.573],[-52.2942,-23.6185],[-52.2698,-23.6253],[-52.2641,-23.6428],[-52.2423,-23.6347],[-52.1908,-23.6446],[-52.1634,-23.6478],[-52.1571,-23.6813],[-52.1161,-23.6728],[-52.1115,-23.7055],[-52.0611,-23.731],[-52.0339,-23.7724],[-52.0438,-23.811],[-51.9963,-23.7906],[-52.0051,-23.8226],[-51.9587,-23.8573],[-51.9395,-23.9082],[-51.968,-23.9493],[-51.9461,-23.9742],[-51.9463,-24.0418],[-51.9178,-24.1038],[-51.9408,-24.1558],[-51.9927,-24.2027],[-51.9581,-24.2409],[-51.9538,-24.2468],[-51.9974,-24.2861],[-51.9885,-24.3207],[-52.0065,-24.3442],[-52.0221,-24.4119],[-52.034,-24.4141],[-52.0166,-24.4718],[-52.0447,-24.5338],[-52.0475,-24.5667],[-52.0007,-24.5916],[-51.9817,-24.6171],[-51.944,-24.5991],[-51.8809,-24.5943],[-51.8776,-24.5513],[-51.839,-24.5327],[-51.8245,-24.4498],[-51.7571,-24.5294],[-51.7249,-24.5961],[-51.6621,-24.5846],[-51.6046,-24.5559],[-51.5602,-24.575],[-51.5337,-24.554],[-51.5022,-24.5748],[-51.4684,-24.555],[-51.4549,-24.5811],[-51.4891,-24.6259],[-51.4719,-24.6475],[-51.4167,-24.7222],[-51.4101,-24.7563],[-51.3742,-24.7733],[-51.3328,-24.7596],[-51.2824,-24.7746],[-51.2227,-24.7727],[-51.1943,-24.7982],[-51.1564,-24.808],[-51.1168,-24.8665],[-51.1188,-24.901],[-51.0866,-24.9368],[-51.0569,-24.9385],[-51.0176,-24.9691],[-50.988,-24.964],[-50.9629,-24.933],[-51.0018,-24.8628],[-51.0288,-24.8551],[-51.0669,-24.8159],[-51.064,-24.6914],[-51.0795,-24.6443],[-51.1319,-24.6161],[-51.1315,-24.5808],[-51.1592,-24.5682],[-51.1661,-24.4885],[-51.139,-24.4681],[-51.1436,-24.4406],[-51.1044,-24.4147],[-51.0779,-24.3523],[-51.098,-24.3258],[-51.0983,-24.2996],[-51.1316,-24.2681],[-51.2039,-24.2459],[-51.2073,-24.223],[-51.2598,-24.2124],[-51.3338,-24.1589],[-51.3725,-24.1426],[-51.3129,-24.1295],[-51.2805,-24.0982],[-51.2344,-24.0865],[-51.2111,-24.1057],[-51.178,-24.1004],[-51.1332,-24.0696],[-51.0854,-24.0744],[-51.0955,-23.988],[-51.1126,-23.9427],[-51.0819,-23.906],[-51.0165,-23.9187],[-50.9515,-23.8839],[-50.9609,-23.867],[-50.8991,-23.7956],[-50.8756,-23.767],[-50.8941,-23.7437],[-50.9154,-23.7144],[-50.8763,-23.6945],[-50.9203,-23.6646],[-50.9334,-23.6078],[-50.9304,-23.5653],[-50.9484,-23.5197],[-50.9535,-23.4162],[-50.9957,-23.3949],[-50.981,-23.3426],[-50.9932,-23.319],[-50.9634,-23.3034],[-50.9882,-23.254],[-50.967,-23.2373],[-50.969,-23.1968],[-50.9508,-23.1724],[-50.9596,-23.1479],[-50.9484,-23.1064],[-50.9772,-23.0948],[-50.9887,-23.0476],[-50.9413,-23.0314],[-50.9464,-22.9819],[-50.9784,-22.9633],[-50.9795,-22.9371],[-50.9333,-22.9089],[-50.9368,-22.8741],[-51.0044,-22.7937],[-51.0576,-22.7661],[-51.1279,-22.76],[-51.176,-22.7388],[-51.2137,-22.7237],[-51.2652,-22.6677],[-51.2982,-22.6735],[-51.3331,-22.6671]]]},"properties":{"codarea":"4103"}},{"type":"Feature","geometry":{"type":"Polygon","coordinates":[[[-53.639,-26.2508],[-53.5843,-26.2591],[-53.5573,-26.2871],[-53.4958,-26.3028],[-53.4309,-26.2821],[-53.4308,-26.282],[-53.4304,-26.2819],[-53.3761,-26.2416],[-53.3423,-26.2491],[-53.3044,-26.2584],[-53.2836,-26.2458],[-53.2644,-26.2893],[-53.1693,-26.3481],[-53.1602,-26.3506],[-53.0932,-26.392],[-53.028,-26.3702],[-52.9935,-26.3477],[-52.9377,-26.3622],[-52.9083,-26.3594],[-52.8469,-26.3444],[-52.7628,-26.3536],[-52.7378,-26.3422],[-52.7006,-26.358],[-52.6802,-26.3527],[-52.645,-26.3809],[-52.5958,-26.4161],[-52.557,-26.4078],[-52.5232,-26.3996],[-52.4972,-26.3273],[-52.4958,-26.2692],[-52.5331,-26.2357],[-52.5345,-26.1713],[-52.562,-26.1497],[-52.5753,-26.1144],[-52.5376,-26.1147],[-52.5166,-26.0888],[-52.415,-26.1049],[-52.3611,-26.065],[-52.3752,-26.0409],[-52.3847,-26.0023],[-52.3826,-25.945],[-52.347,-25.9367],[-52.3243,-25.9057],[-52.2631,-25.8597],[-52.214,-25.7565],[-52.2331,-25.7404],[-52.296,-25.7087],[-52.3274,-25.6786],[-52.3544,-25.7031],[-52.3953,-25.7003],[-52.4312,-25.6791],[-52.4671,-25.6787],[-52.5306,-25.646],[-52.5217,-25.6804],[-52.5442,-25.6962],[-52.5753,-25.6487],[-52.6193,-25.6296],[-52.6278,-25.655],[-52.6768,-25.6557],[-52.7153,-25.6649],[-52.7221,-25.6267],[-52.767,-25.6107],[-52.7832,-25.57],[-52.7851,-25.567],[-52.8001,-25.5956],[-52.857,-25.6029],[-52.8798,-25.6092],[-52.9074,-25.5643],[-52.9547,-25.5548],[-52.9862,-25.5687],[-53.0008,-25.5345],[-53.0689,-25.5666],[-53.0775,-25.5394],[-53.1348,-25.558],[-53.1435,-25.5137],[-53.1888,-25.5157],[-53.195,-25.5635],[-53.2619,-25.5919],[-53.2799,-25.544],[-53.3289,-25.5391],[-53.3032,-25.4967],[-53.344,-25.4798],[-53.3388,-25.5136],[-53.3701,-25.5315],[-53.3869,-25.5058],[-53.4377,-25.5049],[-53.4789,-25.5315],[-53.5,-25.5499],[-53.5367,-25.5462],[-53.5503,-25.5096],[-53.5793,-25.5257],[-53.5763,-25.562],[-53.6042,-25.5618],[-53.6241,-25.5331],[-53.6818,-25.5048],[-53.7176,-25.5521],[-53.7759,-25.5558],[-53.7911,-25.6056],[-53.8181,-25.5897],[-53.8073,-25.54],[-53.8958,-25.595],[-53.9165,-25.5829],[-53.94,-25.5716],[-53.9912,-25.5861],[-53.9609,-25.6291],[-53.9318,-25.6226],[-53.8625,-25.6586],[-53.8498,-25.6908],[-53.8785,-25.7069],[-53.8488,-25.7412],[-53.8427,-25.7707],[-53.8219,-25.7993],[-53.8492,-25.8351],[-53.8336,-25.8954],[-53.8189,-25.9123],[-53.8422,-25.9322],[-53.819,-25.9764],[-53.7716,-26.0315],[-53.7342,-26.0428],[-53.7406,-26.1178],[-53.7103,-26.1306],[-53.6721,-26.1762],[-53.6514,-26.2068],[-53.639,-26.2508]]]},"properties":{"codarea":"4107"}},{"type":"Feature","geometry":{"type":"MultiPolygon","coordinates":[[[[-53.1071,-24.5696],[-53.1364,-24.5374],[-53.1792,-24.5206],[-53.1635,-24.4904],[-53.152,-24.4173],[-53.1593,-24.3947],[-53.1671,-24.3639],[-53.2472,-24.329],[-53.2748,-24.3377],[-53.2897,-24.3063],[-53.2784,-24.2536],[-53.2574,-24.2325],[-53.2645,-24.2181],[-53.2402,-24.1664],[-53.3208,-24.1984],[-53.3621,-24.2517],[-53.4368,-24.2381],[-53.4681,-24.2212],[-53.4811,-24.2181],[-53.5556,-24.2585],[-53.5918,-24.2415],[-53.6419,-24.2394],[-53.6666,-24.2088],[-53.6924,-24.2023],[-53.709,-24.1791],[-53.7657,-24.1599],[-53.8355,-24.1679],[-53.8592,-24.1912],[-53.9015,-24.1786],[-53.9104,-24.1382],[-53.9586,-24.1204],[-53.9886,-24.1267],[-53.9896,-24.0654],[-53.9681,-24.0236],[-53.9662,-24.0024],[-53.9984,-23.9857],[-54.0172,-24.0153],[-54.0558,-24.0365],[-54.0985,-24.025],[-54.169,-23.999],[-54.2495,-24.0559],[-54.2862,-24.0682],[-54.3342,-24.1164],[-54.3456,-24.157],[-54.3275,-24.1964],[-54.3226,-24.2517],[-54.2774,-24.2914],[-54.2578,-24.3553],[-54.2616,-24.375],[-54.2956,-24.4276],[-54.3265,-24.4652],[-54.3361,-24.508],[-54.3185,-24.5907],[-54.3269,-24.6595],[-54.3323,-24.6945],[-54.3899,-24.7773],[-54.395,-24.8113],[-54.437,-24.9414],[-54.4572,-25.0393],[-54.4595,-25.1021],[-54.4249,-25.1533],[-54.4478,-25.1688],[-54.4736,-25.2115],[-54.4912,-25.278],[-54.5254,-25.3315],[-54.5864,-25.3966],[-54.6191,-25.4507],[-54.6037,-25.4825],[-54.5935,-25.5922],[-54.5529,-25.5882],[-54.5361,-25.6207],[-54.5025,-25.6144],[-54.4253,-25.6589],[-54.3971,-25.6397],[-54.3888,-25.5999],[-54.3455,-25.6049],[-54.3289,-25.5719],[-54.2963,-25.5576],[-54.2579,-25.5936],[-54.2031,-25.5805],[-54.1971,-25.5351],[-54.1631,-25.5426],[-54.144,-25.521],[-54.1157,-25.4985],[-54.0966,-25.5214],[-54.1198,-25.5533],[-54.0453,-25.5852],[-54.0108,-25.5665],[-53.9912,-25.5861],[-53.94,-25.5716],[-53.9165,-25.5829],[-53.8958,-25.595],[-53.8073,-25.54],[-53.8181,-25.5897],[-53.7911,-25.6056],[-53.7759,-25.5558],[-53.7176,-25.5521],[-53.6818,-25.5048],[-53.6241,-25.5331],[-53.6042,-25.5618],[-53.5763,-25.562],[-53.5793,-25.5257],[-53.5503,-25.5096],[-53.5367,-25.5462],[-53.5,-25.5499],[-53.4789,-25.5315],[-53.4377,-25.5049],[-53.3869,-25.5058],[-53.3701,-25.5315],[-53.3388,-25.5136],[-53.344,-25.4798],[-53.3032,-25.4967],[-53.3289,-25.5391],[-53.2799,-25.544],[-53.2619,-25.5919],[-53.195,-25.5635],[-53.1888,-25.5157],[-53.1435,-25.5137],[-53.1154,-25.4796],[-53.1057,-25.3879],[-53.0826,-25.3537],[-53.0325,-25.329],[-52.9966,-25.3226],[-52.9163,-25.2794],[-52.8765,-25.2858],[-52.84,-25.2735],[-52.8307,-25.2523],[-52.7786,-25.2494],[-52.7217,-25.2125],[-52.6609,-25.206],[-52.6912,-25.1643],[-52.6689,-25.1445],[-52.6631,-25.098],[-52.6619,-25.0716],[-52.6151,-25.0378],[-52.6048,-25.0122],[-52.6202,-24.9806],[-52.5919,-24.9645],[-52.6558,-24.9294],[-52.662,-24.8942],[-52.7028,-24.8773],[-52.7471,-24.8753],[-52.7684,-24.8648],[-52.8505,-24.7926],[-52.8601,-24.7586],[-52.9197,-24.7621],[-52.9134,-24.7166],[-52.9635,-24.7048],[-52.979,-24.6699],[-53.0248,-24.667],[-53.0444,-24.6504],[-53.0438,-24.6103],[-53.0854,-24.6111],[-53.1071,-24.5696]]],[[[-53.6542,-25.3509],[-53.6251,-25.3464],[-53.6265,-25.3466],[-53.6542,-25.3509]]]]},"properties":{"codarea":"4106"}},{"type":"Feature","geometry":{"type":"Polygon","coordinates":[[[-50.1898,-26.07],[-50.1402,-26.0266],[-50.1242,-26.0508],[-49.9934,-26.0114],[-49.9678,-26.0051],[-49.9733,-25.9591],[-50.0112,-25.931],[-50.0131,-25.8947],[-50.0401,-25.879],[-50.0832,-25.8994],[-50.1434,-25.8875],[-50.2102,-25.8163],[-50.2282,-25.8128],[-50.1898,-25.7647],[-50.1632,-25.7593],[-50.1356,-25.6956],[-50.1307,-25.6604],[-50.0952,-25.6354],[-50.1568,-25.6034],[-50.1714,-25.5838],[-50.2471,-25.5801],[-50.2737,-25.5438],[-50.3209,-25.5463],[-50.3585,-25.5278],[-50.3584,-25.5277],[-50.3415,-25.454],[-50.3052,-25.3804],[-50.277,-25.377],[-50.2874,-25.3189],[-50.2761,-25.2886],[-50.2668,-25.2369],[-50.2805,-25.2118],[-50.2735,-25.1465],[-50.3221,-25.1352],[-50.3706,-25.097],[-50.394,-25.0797],[-50.4303,-25.0043],[-50.4694,-24.9946],[-50.5272,-24.9379],[-50.4737,-24.8072],[-50.6173,-24.8849],[-50.6516,-24.8503],[-50.7141,-24.855],[-50.7497,-24.8314],[-50.7783,-24.8531],[-50.8206,-24.8459],[-50.8498,-24.8564],[-50.8759,-24.8319],[-50.9453,-24.8427],[-51.0018,-24.8628],[-50.9629,-24.933],[-50.988,-24.964],[-51.0176,-24.9691],[-51.0569,-24.9385],[-51.0866,-24.9368],[-51.1188,-24.901],[-51.1168,-24.8665],[-51.1564,-24.808],[-51.1943,-24.7982],[-51.2227,-24.7727],[-51.2824,-24.7746],[-51.3328,-24.7596],[-51.3162,-24.782],[-51.3657,-24.8089],[-51.3715,-24.8741],[-51.3996,-24.9095],[-51.3279,-24.948],[-51.3294,-25.0166],[-51.2977,-25.0655],[-51.2568,-25.0485],[-51.2256,-25.0824],[-51.2454,-25.1041],[-51.2016,-25.1718],[-51.1897,-25.243],[-51.2098,-25.3051],[-51.1394,-25.3397],[-51.1349,-25.3683],[-51.1548,-25.3996],[-51.1344,-25.4225],[-51.0959,-25.4304],[-51.1024,-25.4618],[-51.1453,-25.4836],[-51.1331,-25.5008],[-51.0985,-25.5461],[-51.0313,-25.5684],[-50.9977,-25.5885],[-50.9818,-25.6194],[-50.9895,-25.6449],[-50.9634,-25.6826],[-51.0097,-25.6746],[-51.0201,-25.7058],[-51.0532,-25.6991],[-51.1165,-25.7203],[-51.1321,-25.7632],[-51.1714,-25.7458],[-51.2578,-25.8066],[-51.2817,-25.7916],[-51.303,-25.8331],[-51.3806,-25.8945],[-51.3815,-25.9341],[-51.4127,-25.9247],[-51.4492,-25.9514],[-51.5029,-25.9427],[-51.5505,-25.9869],[-51.6192,-26.0037],[-51.6677,-26.0103],[-51.7096,-25.9781],[-51.6808,-25.9328],[-51.7142,-25.9217],[-51.743,-25.9707],[-51.7395,-25.9946],[-51.723,-26.0069],[-51.7383,-26.0493],[-51.6962,-26.1042],[-51.7308,-26.1976],[-51.7796,-26.2221],[-51.7718,-26.2508],[-51.7254,-26.2589],[-51.6936,-26.2461],[-51.629,-26.2902],[-51.5778,-26.2934],[-51.5913,-26.328],[-51.5638,-26.3669],[-51.5727,-26.389],[-51.5332,-26.4386],[-51.5164,-26.4755],[-51.5291,-26.5132],[-51.5121,-26.5817],[-51.4954,-26.5874],[-51.4549,-26.6407],[-51.4115,-26.7171],[-51.3911,-26.6632],[-51.347,-26.6486],[-51.2834,-26.6536],[-51.2389,-26.6279],[-51.2221,-26.5937],[-51.2281,-26.5546],[-51.2732,-26.4983],[-51.2532,-26.4621],[-51.2929,-26.4341],[-51.2704,-26.3869],[-51.2522,-26.3515],[-51.2029,-26.2982],[-51.1484,-26.2788],[-51.1018,-26.2727],[-51.0774,-26.2312],[-51.0568,-26.2439],[-50.9915,-26.235],[-50.9713,-26.2613],[-50.9436,-26.2438],[-50.9095,-26.2494],[-50.8997,-26.2893],[-50.8469,-26.2664],[-50.7999,-26.2313],[-50.7627,-26.222],[-50.7459,-26.2468],[-50.7156,-26.2446],[-50.7299,-26.2034],[-50.7033,-26.188],[-50.6975,-26.1818],[-50.6828,-26.1536],[-50.6502,-26.1325],[-50.6562,-26.1008],[-50.6285,-26.0628],[-50.5948,-26.0704],[-50.5535,-26.0594],[-50.5509,-26.0383],[-50.5133,-26.0261],[-50.4609,-26.0263],[-50.4295,-26.063],[-50.3717,-26.0792],[-50.3657,-26.1121],[-50.3217,-26.1339],[-50.332,-26.0854],[-50.2685,-26.0428],[-50.2475,-26.0304],[-50.2223,-26.0602],[-50.1898,-26.07]]]},"properties":{"codarea":"4109"}},{"type":"Feature","geometry":{"type":"Polygon","coordinates":[[[-50.2208,-23.9975],[-50.2325,-23.9713],[-50.2903,-23.959],[-50.289,-23.9882],[-50.31,-24.022],[-50.3363,-24.025],[-50.3444,-24.0668],[-50.3306,-24.1226],[-50.3835,-24.1045],[-50.4819,-24.1037],[-50.5395,-24.0683],[-50.6606,-24.0719],[-50.6929,-24.0366],[-50.7028,-24.0249],[-50.7218,-24.0279],[-50.7545,-23.9773],[-50.732,-23.9477],[-50.7871,-23.9056],[-50.8049,-23.8764],[-50.8437,-23.8944],[-50.8574,-23.8684],[-50.8958,-23.8402],[-50.8991,-23.7956],[-50.9609,-23.867],[-50.9515,-23.8839],[-51.0165,-23.9187],[-51.0819,-23.906],[-51.1126,-23.9427],[-51.0955,-23.988],[-51.0854,-24.0744],[-51.1332,-24.0696],[-51.178,-24.1004],[-51.2111,-24.1057],[-51.2344,-24.0865],[-51.2805,-24.0982],[-51.3129,-24.1295],[-51.3725,-24.1426],[-51.3338,-24.1589],[-51.2598,-24.2124],[-51.2073,-24.223],[-51.2039,-24.2459],[-51.1316,-24.2681],[-51.0983,-24.2996],[-51.098,-24.3258],[-51.0779,-24.3523],[-51.1044,-24.4147],[-51.1436,-24.4406],[-51.139,-24.4681],[-51.1661,-24.4885],[-51.1592,-24.5682],[-51.1315,-24.5808],[-51.1319,-24.6161],[-51.0795,-24.6443],[-51.064,-24.6914],[-51.0669,-24.8159],[-51.0288,-24.8551],[-51.0018,-24.8628],[-50.9453,-24.8427],[-50.8759,-24.8319],[-50.8498,-24.8564],[-50.8206,-24.8459],[-50.7783,-24.8531],[-50.7497,-24.8314],[-50.7141,-24.855],[-50.6516,-24.8503],[-50.6173,-24.8849],[-50.4737,-24.8072],[-50.5272,-24.9379],[-50.4694,-24.9946],[-50.4303,-25.0043],[-50.394,-25.0797],[-50.3706,-25.097],[-50.3221,-25.1352],[-50.2735,-25.1465],[-50.2805,-25.2118],[-50.2668,-25.2369],[-50.2761,-25.2886],[-50.2874,-25.3189],[-50.277,-25.377],[-50.3052,-25.3804],[-50.3415,-25.454],[-50.3584,-25.5277],[-50.3585,-25.5278],[-50.3209,-25.5463],[-50.2737,-25.5438],[-50.2471,-25.5801],[-50.1714,-25.5838],[-50.1568,-25.6034],[-50.0952,-25.6354],[-50.0653,-25.651],[-50.0268,-25.6043],[-49.986,-25.5997],[-49.99,-25.5624],[-49.9613,-25.5073],[-49.9327,-25.5035],[-49.9101,-25.4489],[-49.8607,-25.4966],[-49.8465,-25.4761],[-49.7672,-25.4667],[-49.7412,-25.4084],[-49.7566,-25.3606],[-49.8197,-25.2701],[-49.8492,-25.2339],[-49.8159,-25.2253],[-49.773,-25.1954],[-49.7308,-25.2244],[-49.6929,-25.1945],[-49.6827,-25.1653],[-49.7316,-25.1272],[-49.7428,-25.0792],[-49.7049,-25.0291],[-49.6657,-25.0006],[-49.6402,-25.0075],[-49.6042,-24.9865],[-49.5749,-24.9594],[-49.5395,-24.9165],[-49.4988,-24.9053],[-49.5284,-24.8621],[-49.5389,-24.8188],[-49.5674,-24.7955],[-49.5298,-24.7156],[-49.5735,-24.668],[-49.6204,-24.6827],[-49.6415,-24.642],[-49.5917,-24.6363],[-49.5736,-24.6137],[-49.5392,-24.572],[-49.5107,-24.6142],[-49.4912,-24.5518],[-49.3592,-24.4777],[-49.3468,-24.4585],[-49.2757,-24.4169],[-49.2524,-24.4339],[-49.2535,-24.405],[-49.2011,-24.3451],[-49.2542,-24.3179],[-49.2869,-24.3026],[-49.3054,-24.2514],[-49.3507,-24.2208],[-49.3366,-24.1376],[-49.4087,-24.1069],[-49.4298,-24.0687],[-49.4575,-24.0495],[-49.4923,-23.9934],[-49.5223,-23.9166],[-49.5358,-23.9282],[-49.6238,-24.0019],[-49.6344,-24.0707],[-49.6804,-24.0782],[-49.6975,-24.0654],[-49.7594,-24.0841],[-49.7553,-24.0656],[-49.793,-24.0038],[-49.8293,-23.9789],[-49.8303,-23.9363],[-49.9235,-23.8438],[-49.9648,-23.8697],[-49.9731,-23.9021],[-49.9704,-23.9564],[-49.9934,-23.9762],[-50.0421,-23.9897],[-50.0815,-23.9611],[-50.1183,-23.9621],[-50.1617,-23.9421],[-50.2208,-23.9975]]]},"properties":{"codarea":"4105"}},{"type":"Feature","geometry":{"type":"Polygon","coordinates":[[[-51.4719,-24.6475],[-51.4891,-24.6259],[-51.4549,-24.5811],[-51.4684,-24.555],[-51.5022,-24.5748],[-51.5337,-24.554],[-51.5602,-24.575],[-51.6046,-24.5559],[-51.6621,-24.5846],[-51.7249,-24.5961],[-51.7571,-24.5294],[-51.8245,-24.4498],[-51.839,-24.5327],[-51.8776,-24.5513],[-51.8809,-24.5943],[-51.944,-24.5991],[-51.9817,-24.6171],[-52.0007,-24.5916],[-52.0475,-24.5667],[-52.0946,-24.5968],[-52.1341,-24.6253],[-52.2074,-24.6177],[-52.2732,-24.643],[-52.3259,-24.6807],[-52.3706,-24.6955],[-52.3941,-24.7166],[-52.4252,-24.7127],[-52.4531,-24.7463],[-52.4896,-24.7398],[-52.5409,-24.7698],[-52.5372,-24.8401],[-52.6017,-24.8786],[-52.6558,-24.9294],[-52.5919,-24.9645],[-52.6202,-24.9806],[-52.6048,-25.0122],[-52.6151,-25.0378],[-52.6619,-25.0716],[-52.6631,-25.098],[-52.6689,-25.1445],[-52.6912,-25.1643],[-52.6609,-25.206],[-52.7217,-25.2125],[-52.7786,-25.2494],[-52.8307,-25.2523],[-52.84,-25.2735],[-52.8765,-25.2858],[-52.9163,-25.2794],[-52.9966,-25.3226],[-53.0325,-25.329],[-53.0826,-25.3537],[-53.1057,-25.3879],[-53.1154,-25.4796],[-53.1435,-25.5137],[-53.1348,-25.558],[-53.0775,-25.5394],[-53.0689,-25.5666],[-53.0008,-25.5345],[-52.9862,-25.5687],[-52.9547,-25.5548],[-52.9074,-25.5643],[-52.8798,-25.6092],[-52.857,-25.6029],[-52.8001,-25.5956],[-52.7851,-25.567],[-52.7832,-25.57],[-52.767,-25.6107],[-52.7221,-25.6267],[-52.7153,-25.6649],[-52.6768,-25.6557],[-52.6278,-25.655],[-52.6193,-25.6296],[-52.5753,-25.6487],[-52.5442,-25.6962],[-52.5217,-25.6804],[-52.5306,-25.646],[-52.4671,-25.6787],[-52.4312,-25.6791],[-52.3953,-25.7003],[-52.3544,-25.7031],[-52.3274,-25.6786],[-52.296,-25.7087],[-52.2331,-25.7404],[-52.214,-25.7565],[-52.2631,-25.8597],[-52.3243,-25.9057],[-52.347,-25.9367],[-52.3826,-25.945],[-52.3847,-26.0023],[-52.3752,-26.0409],[-52.3611,-26.065],[-52.415,-26.1049],[-52.5166,-26.0888],[-52.5376,-26.1147],[-52.5753,-26.1144],[-52.562,-26.1497],[-52.5345,-26.1713],[-52.5331,-26.2357],[-52.4958,-26.2692],[-52.4972,-26.3273],[-52.5232,-26.3996],[-52.4636,-26.4396],[-52.4426,-26.4381],[-52.4031,-26.4282],[-52.3796,-26.4386],[-52.3044,-26.4407],[-52.277,-26.4612],[-52.2298,-26.467],[-52.1863,-26.4451],[-52.1588,-26.4662],[-52.1116,-26.475],[-52.0814,-26.5251],[-52.0291,-26.5469],[-52.0088,-26.5666],[-51.9003,-26.5793],[-51.8779,-26.5976],[-51.824,-26.5819],[-51.7839,-26.5881],[-51.7376,-26.573],[-51.6927,-26.5805],[-51.6585,-26.5654],[-51.6325,-26.5872],[-51.5356,-26.5918],[-51.5121,-26.5817],[-51.5291,-26.5132],[-51.5164,-26.4755],[-51.5332,-26.4386],[-51.5727,-26.389],[-51.5638,-26.3669],[-51.5913,-26.328],[-51.5778,-26.2934],[-51.629,-26.2902],[-51.6936,-26.2461],[-51.7254,-26.2589],[-51.7718,-26.2508],[-51.7796,-26.2221],[-51.7308,-26.1976],[-51.6962,-26.1042],[-51.7383,-26.0493],[-51.723,-26.0069],[-51.7395,-25.9946],[-51.743,-25.9707],[-51.7142,-25.9217],[-51.6808,-25.9328],[-51.7096,-25.9781],[-51.6677,-26.0103],[-51.6192,-26.0037],[-51.5505,-25.9869],[-51.5029,-25.9427],[-51.4492,-25.9514],[-51.4127,-25.9247],[-51.3815,-25.9341],[-51.3806,-25.8945],[-51.303,-25.8331],[-51.2817,-25.7916],[-51.2578,-25.8066],[-51.1714,-25.7458],[-51.1321,-25.7632],[-51.1165,-25.7203],[-51.0532,-25.6991],[-51.0201,-25.7058],[-51.0097,-25.6746],[-50.9634,-25.6826],[-50.9895,-25.6449],[-50.9818,-25.6194],[-50.9977,-25.5885],[-51.0313,-25.5684],[-51.0985,-25.5461],[-51.1331,-25.5008],[-51.1453,-25.4836],[-51.1024,-25.4618],[-51.0959,-25.4304],[-51.1344,-25.4225],[-51.1548,-25.3996],[-51.1349,-25.3683],[-51.1394,-25.3397],[-51.2098,-25.3051],[-51.1897,-25.243],[-51.2016,-25.1718],[-51.2454,-25.1041],[-51.2256,-25.0824],[-51.2568,-25.0485],[-51.2977,-25.0655],[-51.3294,-25.0166],[-51.3279,-24.948],[-51.3996,-24.9095],[-51.3715,-24.8741],[-51.3657,-24.8089],[-51.3162,-24.782],[-51.3328,-24.7596],[-51.3742,-24.7733],[-51.4101,-24.7563],[-51.4167,-24.7222],[-51.4719,-24.6475]]]},"properties":{"codarea":"4108"}}]}